NEUTRON-1               
1 46923U 98067RT  20362.04159934  .00009159  00000-0  16196-3 0  9992
2 46923  51.6425 113.6955 0002045 162.3337 197.7724 15.51092412  8099
1998-067RU              
1 46924U 98067RU  20362.47758313  .00020900  00000-0  34609-3 0  9992
2 46924  51.6420 111.3580 0001559 213.7883 146.3008 15.52131280  8127
DESCENT                 
1 46927U 98067RX  20361.78587021  .00009812  00000-0  17323-3 0  9997
2 46927  51.6423 114.9867 0002047 185.9753 174.1213 15.51046110  7974
